HST                     
1 20580U 90037B   25072.87088056  .00012504  00000+0  49847-3 0  9998
2 20580  28.4686 330.3478 0002195  99.4189 260.6653 15.23622828718122
POLAR                   
1 23802U 96013A   25071.68649838  .00000209  00000+0  00000+0 0  9990
2 23802  79.3620 232.0277 6046614 224.6472  66.8475  1.29846486138861
SWAS                    
1 25560U 98071A   25072.90097323  .00010194  00000+0  72304-3 0  9995
2 25560  69.8991 330.5052 0009569 250.2227 109.7903 15.04961762427901
CXO                     
1 25867U 99040B   25074.23886041  .00000935  00000+0  00000+0 0  9995
2 25867  47.4145 134.4462 8560507 307.7631   0.4342  0.37810972 15586
XMM-NEWTON              
1 25989U 99066A   25071.64887082  .00000051  00000+0  00000+0 0  9995
2 25989  66.6751 289.1149 4916374  72.9108 359.8852  0.50135858 35059
TERRA                   
1 25994U 99068A   25073.14865037  .00001126  00000+0  24109-3 0  9990
2 25994  98.0097 134.3004 0001444 204.6314 208.1522 14.60531234342561
CLUSTER II-FM7 (SAMBA)  
1 26410U 00041A   25071.08870998  .00000185  00000+0  00000+0 0  9994
2 26410 142.8277   6.9412 8162611 222.2186 359.7771  0.44761583 18237
CLUSTER II-FM8 (TANGO)  
1 26464U 00045B   25069.61976918  .00000279  00000+0  00000+0 0  9996
2 26464 143.0568   7.2259 8161564 222.3594 359.9003  0.44417590 18242
ODIN                    
1 26702U 01007A   25072.93857556  .00028813  00000+0  83493-3 0  9990
2 26702  97.4568  95.0800 0007778  57.2261 302.9731 15.35489863318113
TIMED                   
1 26998U 01055B   25073.18705270  .00003599  00000+0  34560-3 0  9998
2 26998  74.0675  80.0262 0001721 310.8371  49.2663 14.93473432262243
CORIOLIS                
1 27640U 03001A   25072.95988524  .00000337  00000+0  17969-3 0  9996
2 27640  98.7159  81.9176 0015226  98.0163 262.2742 14.19735684148911
SORCE                   
1 27651U 03004A   25072.83411643  .00008578  00000+0  69598-3 0  9991
2 27651  39.9936   0.3421 0019510 339.4431  20.5575 14.99454687202673
MOST                    
1 27843U 03031D   25072.93505461  .00000230  00000+0  12596-3 0  9990
2 27843  98.7089  82.0750 0010671 136.6028 223.5991 14.21166340125333
SCISAT 1                
1 27858U 03036A   25072.94162845  .00002252  00000+0  29904-3 0  9994
2 27858  73.9341   5.1533 0007703 185.8550 174.2538 14.80448079163314
SWIFT                   
1 28485U 04047A   25072.93424734  .00034903  00000+0  10329-2 0  9999
2 28485  20.5560  30.9245 0006359 204.6484 155.3652 15.33083480115426
CALIPSO                 
1 29108U 06016B   25073.21922400  .00003982  00000+0  70703-3 0  9991
2 29108  98.4450  68.6080 0001139  80.2087 279.9245 14.67785190  5550
HINODE (SOLAR-B)        
1 29479U 06041A   25073.02331328  .00001664  00000+0  30072-3 0  9992
2 29479  98.0788  90.6484 0016530 310.2486  49.7272 14.67640558987352
SHIJIAN-6 02A (SJ-6 02A)
1 29505U 06046A   25073.14519362  .00014223  00000+0  88430-3 0  9992
2 29505  97.6938 106.4465 0001668 287.2497  72.8549 15.09750137  2804
SHIJIAN-6 02B (SJ-6 02B)
1 29506U 06046B   25073.18276319  .00003640  00000+0  30283-3 0  9993
2 29506  97.7163 101.5557 0002529  87.9497 272.2016 14.99305054  1767
FGRST (GLAST)           
1 33053U 08029A   25072.58709539  .00007842  00000+0  33580-3 0  9997
2 33053  25.5823 154.1600 0008610 307.4129  52.5625 15.20307112925574
SDO                     
1 36395U 10005A   25068.09348979 -.00000082  00000+0  00000+0 0  9991
2 36395  33.6749  93.4598 0000938 196.3582 169.0356  1.00275098 55408
CRYOSAT 2               
1 36508U 10013A   25072.90230708  .00000510  00000+0  12581-3 0  9997
2 36508  92.0189 166.1903 0003703  91.1091 269.0541 14.51912555791296
X-SAT                   
1 37389U 11015C   25073.20653333  .00000405  00000+0  19044-3 0  9999
2 37389  98.3086  68.5284 0012837 252.6770 107.3007 14.24981614722682
GCOM-W1 (SHIZUKU)       
1 38337U 12025A   25072.80226257  .00001607  00000+0  36635-3 0  9991
2 38337  98.2053  15.0522 0002148  71.5797 309.9319 14.57135525681994
NUSTAR                  
1 38358U 12031A   25072.91668981  .00028167  00000+0  20060-2 0  9991
2 38358   6.0262 230.1462 0008472 135.7828 206.2874 15.02255874  5157
NEOSSAT                 
1 39089U 13009D   25072.95833893  .00000489  00000+0  18453-3 0  9990
2 39089  98.4061 259.3356 0011205 172.6758 187.4593 14.35534312630701
BRITE-AUSTRIA           
1 39091U 13009F   25073.04282202  .00000556  00000+0  20488-3 0  9992
2 39091  98.3871 259.3019 0010511 168.1121 192.0315 14.36222811631008
IRIS                    
1 39197U 13033A   25073.17959635  .00003369  00000+0  40746-3 0  9995
2 39197  97.9556 268.7202 0025595  24.6067 335.6363 14.84153709632125
HISAKI (SPRINT-A)       
1 39253U 13049A   25072.96020666  .00000161  00000+0  12621-3 0  9992
2 39253  29.7218  39.7072 0136826 245.8004 112.8212 13.55473367568932
CASSIOPE                
1 39265U 13055A   25072.90423257  .00050480  00000+0  84494-3 0  9995
2 39265  80.9406 250.7333 0415632 136.1316 227.3717 14.91685162598294
STSAT-3                 
1 39422U 13066G   25073.16881259  .00007699  00000+0  64145-3 0  9996
2 39422  97.5558  48.8797 0019335 167.2623 192.9093 14.98757853615206
SWARM B                 
1 39451U 13067A   25073.14636281  .00007128  00000+0  29046-3 0  9998
2 39451  87.7440 121.6472 0003013  90.5485 269.6107 15.24303187627678
SWARM A                 
1 39452U 13067B   25072.91463360  .00017356  00000+0  43447-3 0  9994
2 39452  87.3395 225.4014 0002249  97.3847 262.7664 15.39970548635168
SWARM C                 
1 39453U 13067C   25073.17447141  .00019062  00000+0  47700-3 0  9995
2 39453  87.3400 223.8971 0002247  97.3254 262.8257 15.39982495635219
BRITE-CA1 (TORONTO)     
1 40020U 14033L   25072.91928601  .00002561  00000+0  40373-3 0  9992
2 40020  97.9096 207.5031 0079659 310.6004  48.8290 14.71200950574619
OCO 2                   
1 40059U 14035A   25072.93219191  .00001391  00000+0  31900-3 0  9991
2 40059  98.1994  15.9635 0001837  92.9447 267.1961 14.57069177569024
BRITE-PL2 (HEWELIUSZ)   
1 40119U 14049B   25072.84920719  .00005966  00000+0  59513-3 0  9990
2 40119  97.8834 177.9773 0014796 190.1339 169.9583 14.91848182572742
MMS 1                   
1 40482U 15011A   25073.25002315 -.00001887  00000+0  00000+0 0  9994
2 40482  61.5799 357.8381 8811805 157.3621  76.8897  0.28445578 16148
MMS 2                   
1 40483U 15011B   25073.25002315 -.00001886  00000+0  00000+0 0  9994
2 40483  61.5434 357.8573 8810790 157.3383  76.8091  0.28448194 16126
MMS 3                   
1 40484U 15011C   25073.25002315 -.00001886  00000+0  00000+0 0  9995
2 40484  61.5821 357.8387 8809685 157.3571  76.7757  0.28441929 16127
MMS 4                   
1 40485U 15011D   25073.25002315 -.00001887  00000+0  00000+0 0  9997
2 40485  61.5418 357.8521 8809605 157.3505  67.0953  0.28431021 16122
ASTROSAT                
1 40930U 15052A   25072.87007079  .00003655  00000+0  37631-3 0  9994
2 40930   5.9955 225.3078 0008873 303.8934  56.0350 14.81028270511430
DAMPE                   
1 41173U 15078A   25073.25247877  .00003569  00000+0  12932-3 0  9998
2 41173  97.4468  72.2932 0010568 266.7039  93.2992 15.28989785514224
PISAT                   
1 41784U 16059B   25072.95986141  .00002616  00000+0  46646-3 0  9997
2 41784  97.8210  88.7307 0028527 232.9637 126.8959 14.67566481452203
HXMT (HUIYAN)           
1 42758U 17034A   25072.85941267  .00011543  00000+0  65753-3 0  9991
2 42758  43.0136 214.9344 0035810 121.2969 239.1391 15.12278830427816
FLYING LAPTOP           
1 42831U 17042G   25072.90865241  .00005040  00000+0  43035-3 0  9999
2 42831  97.3982 244.9605 0010697 245.4379 114.5730 14.98053346417472
ZHANGHENG 1 (CSES)      
1 43194U 18015C   25073.16482387  .00025220  00000+0  11480-2 0  9998
2 43194  97.6369 226.0543 0006179  52.2695 307.9099 15.20670967394722
SALSAT                  
1 46495U 20068K   25072.90675576  .00015236  00000+0  69553-3 0  9992
2 46495  97.8530  47.0454 0014346 103.4227 256.8608 15.20612209245197
IXPE                    
1 49954U 21121A   25072.91668981  .00013491  00000+0  88596-3 0  9998
2 49954   0.2300 182.4848 0007949 343.0557 359.8387 15.03997669  5822
